PROBA-1                 
1 26958U 01049B   16071.20148622  .00000634  00000-0  60424-4 0  9997
2 26958  97.5031  50.4841 0075648  80.4544 280.5226 14.94628931782351
BIRD 2                  
1 26959U 01049C   16071.18899228  .00005295  00000-0  17525-3 0  9991
2 26959  97.7610 348.9133 0009210 209.8181 150.2536 15.31759533795381
CUTE-1 (CO-55)          
1 27844U 03031E   16071.01062170  .00000156  00000-0  90426-4 0  9991
2 27844  98.6950  80.6993 0008690 243.8386 116.1898 14.21924284658499
CUBESAT XI-IV (CO-57)   
1 27848U 03031J   16070.46492606  .00000129  00000-0  78985-4 0  9990
2 27848  98.7047  80.2048 0008538 254.6463 105.3771 14.21553733658313
GENESIS 1               
1 29252U 06029A   16071.18631926  .00002407  00000-0  13401-3 0  9993
2 29252  64.5085 356.5899 0038728 237.7309 228.3533 15.15727575531633
FALCONSAT-3             
1 30776U 07006E   16071.23142413  .00007571  00000-0  26820-3 0  9992
2 30776  35.4372 115.9541 0001302 190.6032 169.4665 15.28463610497285
GENESIS 2               
1 31789U 07028A   16070.39198363  .00002746  00000-0  15235-3 0  9999
2 31789  64.5065  35.5064 0052425 279.4161  80.1036 15.14977922478618
APRIZESAT 4             
1 35684U 09041D   16070.39928961  .00000374  00000-0  57249-4 0  9996
2 35684  98.0893   3.0881 0048133 150.1802 324.4897 14.78835976356583
APRIZESAT 3             
1 35686U 09041F   16071.11575628  .00000735  00000-0  85175-4 0  9997
2 35686  98.2361  46.3056 0074992  78.6960 282.2670 14.86785594358370
PROBA-2                 
1 36037U 09059B   16071.09880222  .00000089  00000-0  32422-4 0  9992
2 36037  98.2668 265.4879 0012658 326.5434  33.4961 14.52933173336882
APRIZESAT 5             
1 37792U 11044E   16071.12867846  .00000494  00000-0  79713-4 0  9993
2 37792  98.2718 196.2541 0059948  86.0845 274.7214 14.74917604245606
APRIZESAT 6             
1 37793U 11044F   16071.20688792  .00000439  00000-0  77129-4 0  9992
2 37793  98.2365 186.3168 0048516 103.9428 323.2062 14.72017563245159
TET-1                   
1 38710U 12039D   16070.40143753  .00008702  00000-0  21545-3 0  9992
2 38710  97.4957   5.8073 0003843  87.8702 272.2984 15.40668158202726
STSAT-2C                
1 39068U 13003A   16071.18822571  .00046659 -45382-6  57497-3 0  9996
2 39068  80.2342 333.2884 0478747 118.3019 246.7357 14.84750618163107
PROBA-V                 
1 39159U 13021A   16071.17653949 -.00000004  00000-0  17410-4 0  9995
2 39159  98.6382 151.0365 0003116 280.4610  79.6223 14.22914442147754
CUSAT 1                 
1 39266U 13055B   16070.18770498  .00011416  00000-0  33159-3 0  9995
2 39266  80.9887 130.4137 0688450 140.3917 224.9717 14.22984762125851
STPSAT-3                
1 39380U 13064A   16070.20556775  .00005589  00000-0  18500-3 0  9992
2 39380  40.5032 359.9310 0005655 302.4349  57.5916 15.31741085128543
APRIZESAT 7             
1 39416U 13066A   16070.14519386  .00000433  00000-0  58351-4 0  9996
2 39416  97.6988 132.5860 0040892 338.2432  21.7043 14.83487420124426
APRIZESAT 8             
1 39425U 13066K   16070.41835514  .00000356  00000-0  51982-4 0  9997
2 39425  97.6939 129.1900 0051772 344.0365  15.9213 14.80763262124262
BUGSAT-1 (TITA)         
1 40014U 14033E   16071.19253494  .00002258  00000-0  21426-3 0  9997
2 40014  97.9560 343.9632 0034022  60.9420 299.5209 14.94172343 94051
SAUDISAT 4              
1 40016U 14033G   16071.19839979  .00000278  00000-0  48264-4 0  9997
2 40016  97.9184 324.2991 0048108 340.1682  19.7655 14.74977131 92903
TABLETSAT-AURORA        
1 40017U 14033H   16071.20758651  .00001611  00000-0  16324-3 0  9990
2 40017  97.9501 341.6504 0025355  58.5007 301.8685 14.92154812 93924
APRIZESAT 9             
1 40018U 14033J   16071.21129043  .00000248  00000-0  48395-4 0  9998
2 40018  97.9084 318.7175 0071548 350.6895   9.2980 14.69674988 92477
APRIZESAT 10            
1 40019U 14033K   16071.15643878  .00000213  00000-0  44940-4 0  9993
2 40019  97.9034 315.6364 0084555 357.9379   2.1464 14.66757058 92340
AISAT                   
1 40054U 14034B   16071.23147244  .00001531  00000-0  22788-3 0  9997
2 40054  98.1958 158.0660 0014454  90.1321 270.1544 14.76352296 91395
CANX-4                  
1 40055U 14034C   16071.22907176  .00000467  00000-0  78307-4 0  9991
2 40055  98.1969 157.2803 0015668  99.2752 261.0228 14.74378774 91322
CANX-5                  
1 40056U 14034D   16071.22915576  .00000472  00000-0  79102-4 0  9995
2 40056  98.1968 157.2796 0015710  99.5350 260.7634 14.74379482 91333
TDS 1                   
1 40076U 14037H   16071.18046555  .00000359  00000-0  53524-4 0  9991
2 40076  98.3261 158.4172 0007090 114.8501 245.3454 14.81146800 90483
TIANTUO 2               
1 40144U 14053B   16071.13457199  .00003991  00000-0  13238-3 0  9992
2 40144  97.3585 151.2380 0013713 118.3749 329.1068 15.31749137 84079
